{"type": "FeatureCollection", "features": [ {"type": "Feature", "properties": {"norad_id": 42738, "name": "QZS-2 (QZSS/PRN 194)", "group": "gnss", "lat": 28.472728765800397, "lon": 24.95023920935234, "alt_km": 38021.05948157579, "timestamp": "2025-12-25T09:48:52.534960+00:00", "meta": {"OBJECT_NAME": "QZS-2 (QZSS/PRN 194)", "OBJECT_ID": "2017-028A", "EPOCH": "2025-12-21T12:44:15.516096", "MEAN_MOTION": 1.00280763, "ECCENTRICITY": 0.07561437, "INCLINATION": 39.6996, "RA_OF_ASC_NODE": 245.7532, "ARG_OF_PERICENTER": 269.5788, "MEAN_ANOMALY": 268.1676, "EPHEMERIS_TYPE": 0, "CLASSIFICATION_TYPE": "U", "NORAD_CAT_ID": 42738, "ELEMENT_SET_NO": 999, "REV_AT_EPOCH": 584, "BSTAR": 0, "MEAN_MOTION_DOT": -1.06e-06, "MEAN_MOTION_DDOT": 0}, "tle": {"line1": "1 42738U 17028A   25355.53073514 -.00000106  00000+0  00000+0 0  9996", "line2": "2 42738  39.6996 245.7532 0756143 269.5788 268.1676  1.00280763  5847"}}, "geometry": {"type": "Point", "coordinates": [24.95023920935234, 28.472728765800397]}}, {"type": "Feature", "properties": {"norad_id": 42917, "name": "QZS-3 (QZSS/PRN 199)", "group": "gnss", "lat": -0.015797706810979296, "lon": 8.341427593973846, "alt_km": 35787.53841796693, "timestamp": "2025-12-25T09:48:52.534986+00:00", "meta": {"OBJECT_NAME": "QZS-3 (QZSS/PRN 199)", "OBJECT_ID": "2017-048A", "EPOCH": "2025-12-25T01:09:38.755872", "MEAN_MOTION": 1.00265375, "ECCENTRICITY": 0.0001993, "INCLINATION": 0.0631, "RA_OF_ASC_NODE": 178.5359, "ARG_OF_PERICENTER": 102.5351, "MEAN_ANOMALY": 317.0997, "EPHEMERIS_TYPE": 0, "CLASSIFICATION_TYPE": "U", "NORAD_CAT_ID": 42917, "ELEMENT_SET_NO": 999, "REV_AT_EPOCH": 3051, "BSTAR": 0, "MEAN_MOTION_DOT": -3.27e-06, "MEAN_MOTION_DDOT": 0}, "tle": {"line1": "1 42917U 17048A   25359.04836523 -.00000327  00000+0  00000+0 0  9999", "line2": "2 42917   0.0631 178.5359 0001993 102.5351 317.0997  1.00265375 30516"}}, "geometry": {"type": "Point", "coordinates": [8.341427593973846, -0.015797706810979296]}}, {"type": "Feature", "properties": {"norad_id": 42939, "name": "COSMOS 2522 (752)", "group": "gnss", "lat": -56.25470392991118, "lon": 151.05031589279682, "alt_km": 19130.33328683861, "timestamp": "2025-12-25T09:48:52.535003+00:00", "meta": {"OBJECT_NAME": "COSMOS 2522 (752)", "OBJECT_ID": "2017-055A", "EPOCH": "2025-12-24T02:08:41.637984", "MEAN_MOTION": 2.13102066, "ECCENTRICITY": 0.00062718, "INCLINATION": 64.0767, "RA_OF_ASC_NODE": 197.8423, "ARG_OF_PERICENTER": 223.2382, "MEAN_ANOMALY": 136.7706, "EPHEMERIS_TYPE": 0, "CLASSIFICATION_TYPE": "U", "NORAD_CAT_ID": 42939, "ELEMENT_SET_NO": 999, "REV_AT_EPOCH": 6424, "BSTAR": 0, "MEAN_MOTION_DOT": 9.8e-07, "MEAN_MOTION_DDOT": 0}, "tle": {"line1": "1 42939U 17055A   25358.08937081  .00000098  00000+0  00000+0 0  9999", "line2": "2 42939  64.0767 197.8423 0006271 223.2382 136.7706  2.13102066 64248"}}, "geometry": {"type": "Point", "coordinates": [151.05031589279682, -56.25470392991118]}}, {"type": "Feature", "properties": {"norad_id": 42965, "name": "QZS-4 (QZSS/PRN 195)", "group": "gnss", "lat": 24.056366253768374, "lon": 17.56688466857486, "alt_km": 37702.996634942196, "timestamp": "2025-12-25T09:48:52.535017+00:00", "meta": {"OBJECT_NAME": "QZS-4 (QZSS/PRN 195)", "OBJECT_ID": "2017-062A", "EPOCH": "2025-12-24T19:47:03.643008", "MEAN_MOTION": 1.00301022, "ECCENTRICITY": 0.0751986, "INCLINATION": 40.2171, "RA_OF_ASC_NODE": 345.7144, "ARG_OF_PERICENTER": 268.3083, "MEAN_ANOMALY": 272.9513, "EPHEMERIS_TYPE": 0, "CLASSIFICATION_TYPE": "U", "NORAD_CAT_ID": 42965, "ELEMENT_SET_NO": 999, "REV_AT_EPOCH": 3005, "BSTAR": 0, "MEAN_MOTION_DOT": -3.02e-06, "MEAN_MOTION_DDOT": 0}, "tle": {"line1": "1 42965U 17062A   25358.82434772 -.00000302  00000+0  00000+0 0  9996", "line2": "2 42965  40.2171 345.7144 0751986 268.3083 272.9513  1.00301022 30053"}}, "geometry": {"type": "Point", "coordinates": [17.56688466857486, 24.056366253768374]}}, {"type": "Feature", "properties": {"norad_id": 43001, "name": "BEIDOU-3 M1 (C19)", "group": "gnss", "lat": 10.772628373957595, "lon": -118.3874554422145, "alt_km": 21546.625221692062, "timestamp": "2025-12-25T09:48:52.535030+00:00", "meta": {"OBJECT_NAME": "BEIDOU-3 M1 (C19)", "OBJECT_ID": "2017-069A", "EPOCH": "2025-12-24T02:03:22.370112", "MEAN_MOTION": 1.86231021, "ECCENTRICITY": 0.00099255, "INCLINATION": 56.5356, "RA_OF_ASC_NODE": 68.8594, "ARG_OF_PERICENTER": 302.4524, "MEAN_ANOMALY": 57.5061, "EPHEMERIS_TYPE": 0, "CLASSIFICATION_TYPE": "U", "NORAD_CAT_ID": 43001, "ELEMENT_SET_NO": 999, "REV_AT_EPOCH": 5534, "BSTAR": 0, "MEAN_MOTION_DOT": -2.4e-07, "MEAN_MOTION_DDOT": 0}, "tle": {"line1": "1 43001U 17069A   25358.08567558 -.00000024  00000+0  00000+0 0  9993", "line2": "2 43001  56.5356  68.8594 0009925 302.4524  57.5061  1.86231021 55340"}}, "geometry": {"type": "Point", "coordinates": [-118.3874554422145, 10.772628373957595]}}, {"type": "Feature", "properties": {"norad_id": 43002, "name": "BEIDOU-3 M2 (C20)", "group": "gnss", "lat": -23.40952504643523, "lon": -94.51340511512122, "alt_km": 21540.420862921063, "timestamp": "2025-12-25T09:48:52.535041+00:00", "meta": {"OBJECT_NAME": "BEIDOU-3 M2 (C20)", "OBJECT_ID": "2017-069B", "EPOCH": "2025-12-25T02:21:04.022208", "MEAN_MOTION": 1.86231058, "ECCENTRICITY": 0.0006739, "INCLINATION": 56.5361, "RA_OF_ASC_NODE": 68.8616, "ARG_OF_PERICENTER": 327.75, "MEAN_ANOMALY": 32.2629, "EPHEMERIS_TYPE": 0, "CLASSIFICATION_TYPE": "U", "NORAD_CAT_ID": 43002, "ELEMENT_SET_NO": 999, "REV_AT_EPOCH": 5535, "BSTAR": 0, "MEAN_MOTION_DOT": -2.5e-07, "MEAN_MOTION_DDOT": 0}, "tle": {"line1": "1 43002U 17069B   25359.09796322 -.00000025  00000+0  00000+0 0  9990", "line2": "2 43002  56.5361  68.8616 0006739 327.7500  32.2629  1.86231058 55357"}}, "geometry": {"type": "Point", "coordinates": [-94.51340511512122, -23.40952504643523]}}, {"type": "Feature", "properties": {"norad_id": 43055, "name": "GSAT0215 (GALILEO 19)", "group": "gnss", "lat": 10.744907510940246, "lon": -126.09397103695778, "alt_km": 23217.768001443605, "timestamp": "2025-12-25T09:48:52.535053+00:00", "meta": {"OBJECT_NAME": "GSAT0215 (GALILEO 19)", "OBJECT_ID": "2017-079A", "EPOCH": "2025-12-24T05:08:42.877824", "MEAN_MOTION": 1.70473983, "ECCENTRICITY": 0.00011857, "INCLINATION": 55.1264, "RA_OF_ASC_NODE": 226.3216, "ARG_OF_PERICENTER": 351.3988, "MEAN_ANOMALY": 8.6951, "EPHEMERIS_TYPE": 0, "CLASSIFICATION_TYPE": "U", "NORAD_CAT_ID": 43055, "ELEMENT_SET_NO": 999, "REV_AT_EPOCH": 5000, "BSTAR": 0, "MEAN_MOTION_DOT": 7.2e-07, "MEAN_MOTION_DDOT": 0}, "tle": {"line1": "1 43055U 17079A   25358.21438516  .00000072  00000+0  00000+0 0  9991", "line2": "2 43055  55.1264 226.3216 0001185 351.3988   8.6951  1.70473983 50002"}}, "geometry": {"type": "Point", "coordinates": [-126.09397103695778, 10.744907510940246]}}, {"type": "Feature", "properties": {"norad_id": 43056, "name": "GSAT0216 (GALILEO 20)", "group": "gnss", "lat": -11.756575053499489, "lon": 54.646432295109456, "alt_km": 23228.46536968363, "timestamp": "2025-12-25T09:48:52.535066+00:00", "meta": {"OBJECT_NAME": "GSAT0216 (GALILEO 20)", "OBJECT_ID": "2017-079B", "EPOCH": "2025-12-22T17:54:08.003808", "MEAN_MOTION": 1.70474127, "ECCENTRICITY": 0.00023154, "INCLINATION": 55.1272, "RA_OF_ASC_NODE": 226.3621, "ARG_OF_PERICENTER": 325.7724, "MEAN_ANOMALY": 34.3161, "EPHEMERIS_TYPE": 0, "CLASSIFICATION_TYPE": "U", "NORAD_CAT_ID": 43056, "ELEMENT_SET_NO": 999, "REV_AT_EPOCH": 4999, "BSTAR": 0, "MEAN_MOTION_DOT": 7.3e-07, "MEAN_MOTION_DDOT": 0}, "tle": {"line1": "1 43056U 17079B   25356.74592597  .00000073  00000+0  00000+0 0  9999", "line2": "2 43056  55.1272 226.3621 0002315 325.7724  34.3161  1.70474127 49997"}}, "geometry": {"type": "Point", "coordinates": [54.646432295109456, -11.756575053499489]}}, {"type": "Feature", "properties": {"norad_id": 43057, "name": "GSAT0217 (GALILEO 21)", "group": "gnss", "lat": 44.637730865627226, "lon": -90.18834441479014, "alt_km": 23212.373807299635, "timestamp": "2025-12-25T09:48:52.535077+00:00", "meta": {"OBJECT_NAME": "GSAT0217 (GALILEO 21)", "OBJECT_ID": "2017-079C", "EPOCH": "2025-12-24T03:21:20.619936", "MEAN_MOTION": 1.70473665, "ECCENTRICITY": 0.00026088, "INCLINATION": 55.1247, "RA_OF_ASC_NODE": 226.3216, "ARG_OF_PERICENTER": 4.3447, "MEAN_ANOMALY": 355.754, "EPHEMERIS_TYPE": 0, "CLASSIFICATION_TYPE": "U", "NORAD_CAT_ID": 43057, "ELEMENT_SET_NO": 999, "REV_AT_EPOCH": 5000, "BSTAR": 0, "MEAN_MOTION_DOT": 7.2e-07, "MEAN_MOTION_DDOT": 0}, "tle": {"line1": "1 43057U 17079C   25358.13982199  .00000072  00000+0  00000+0 0  9995", "line2": "2 43057  55.1247 226.3216 0002608   4.3447 355.7540  1.70473665 50008"}}, "geometry": {"type": "Point", "coordinates": [-90.18834441479014, 44.637730865627226]}}, {"type": "Feature", "properties": {"norad_id": 43058, "name": "GSAT0218 (GALILEO 22)", "group": "gnss", "lat": -52.79541090241718, "lon": 159.60122045542082, "alt_km": 23221.868365580634, "timestamp": "2025-12-25T09:48:52.535090+00:00", "meta": {"OBJECT_NAME": "GSAT0218 (GALILEO 22)", "OBJECT_ID": "2017-079D", "EPOCH": "2025-12-22T00:19:29.615808", "MEAN_MOTION": 1.70473914, "ECCENTRICITY": 0.00024164, "INCLINATION": 55.1256, "RA_OF_ASC_NODE": 226.3779, "ARG_OF_PERICENTER": 315.4078, "MEAN_ANOMALY": 44.6792, "EPHEMERIS_TYPE": 0, "CLASSIFICATION_TYPE": "U", "NORAD_CAT_ID": 43058, "ELEMENT_SET_NO": 999, "REV_AT_EPOCH": 4999, "BSTAR": 0, "MEAN_MOTION_DOT": 7.3e-07, "MEAN_MOTION_DDOT": 0}, "tle": {"line1": "1 43058U 17079D   25356.01353722  .00000073  00000+0  00000+0 0  9996", "line2": "2 43058  55.1256 226.3779 0002416 315.4078  44.6792  1.70473914 49992"}}, "geometry": {"type": "Point", "coordinates": [159.60122045542082, -52.79541090241718]}}]}